$GPRMC,190000.00,A,4152.4976,N,08756.7678,W,35.6,55.0,090826,,,A*4D
$GPRMC,195153.00,A,4146.6896,N,08804.9836,W,37.3,210.0,090826,,,A*71
$GPRMC,204346.00,A,4139.6144,N,08812.3522,W,37.0,221.0,090826,,,A*76
$GPRMC,213540.00,A,4133.6240,N,08820.5068,W,34.9,147.0,090826,,,A*78
$GPRMC,222733.00,A,4126.9886,N,08828.2828,W,39.7,93.0,090826,,,A*4F
$GPRMC,231926.00,A,4120.6904,N,08835.7642,W,49.1,80.0,090826,,,A*4D
$GPRMC,001120.00,A,4114.4120,N,08844.0166,W,48.4,270.0,100826,,,A*78
$GPRMC,010313.00,A,4108.1918,N,08851.5214,W,38.2,169.0,100826,,,A*7C
$GPRMC,015506.00,A,4101.4280,N,08859.1708,W,44.3,184.0,100826,,,A*70
$GPRMC,024700.00,A,4054.7590,N,08906.7686,W,50.6,74.0,100826,,,A*46
$GPRMC,030000.00,A,4152.5642,N,08757.0678,W,44.7,116.0,140926,,,A*75
$GPRMC,035320.00,A,4147.0424,N,08804.8252,W,42.1,100.0,140926,,,A*78
$GPRMC,044640.00,A,4141.3022,N,08811.9718,W,33.9,194.0,140926,,,A*77
$GPRMC,054000.00,A,4135.0322,N,08819.6776,W,39.6,273.0,140926,,,A*77
$GPRMC,063320.00,A,4129.4240,N,08827.4524,W,39.6,180.0,140926,,,A*7B
$GPRMC,072640.00,A,4123.6316,N,08835.2356,W,49.9,205.0,140926,,,A*72
$GPRMC,082000.00,A,4118.0516,N,08843.0014,W,37.0,23.0,140926,,,A*47
