$GPRMC,010000.00,A,3905.7042,N,08811.9898,W,49.1,204.0,060826,,,A*73
$GPRMC,015000.00,A,3915.0960,N,08803.4632,W,50.9,146.0,060826,,,A*7C
$GPRMC,024000.00,A,3924.5820,N,08754.9858,W,45.0,264.0,060826,,,A*70
$GPRMC,033000.00,A,3934.2348,N,08746.8630,W,37.4,75.0,060826,,,A*44
$GPRMC,042000.00,A,3943.2654,N,08738.1492,W,52.4,163.0,060826,,,A*75
$GPRMC,051000.00,A,3952.7736,N,08730.3426,W,47.5,260.0,060826,,,A*77
$GPRMC,060000.00,A,4002.3556,N,08721.5664,W,40.2,73.0,060826,,,A*4C
$GPRMC,065000.00,A,4011.7348,N,08712.9288,W,50.4,351.0,060826,,,A*78
$GPRMC,074000.00,A,4020.7072,N,08705.2008,W,44.8,181.0,060826,,,A*71
$GPRMC,083000.00,A,4030.4512,N,08656.6898,W,41.5,96.0,060826,,,A*45
$GPRMC,060000.00,A,3906.3330,N,08812.3000,W,41.5,230.0,020926,,,A*7B
$GPRMC,065420.00,A,3904.2582,N,08801.5114,W,35.4,64.0,020926,,,A*45
$GPRMC,074840.00,A,3902.5464,N,08750.9910,W,52.9,314.0,020926,,,A*74
$GPRMC,084300.00,A,3901.0368,N,08741.3034,W,46.6,224.0,020926,,,A*74
$GPRMC,093720.00,A,3858.8798,N,08730.4626,W,37.2,36.0,020926,,,A*4D
$GPRMC,103140.00,A,3856.8590,N,08720.3670,W,40.8,183.0,020926,,,A*71
$GPRMC,112600.00,A,3855.0614,N,08709.8610,W,38.1,46.0,020926,,,A*4E
$GPRMC,122020.00,A,3853.3592,N,08659.9040,W,52.6,145.0,020926,,,A*7E
$GPRMC,131440.00,A,3851.8100,N,08649.1814,W,50.3,238.0,020926,,,A*76
$GPRMC,140900.00,A,3850.0820,N,08638.8572,W,42.4,316.0,020926,,,A*70
