$GPRMC,190000.00,A,3906.0336,N,08811.8392,W,40.8,158.0,190726,,,A*75
$GPRMC,195500.00,A,3859.0904,N,08820.6796,W,42.2,255.0,190726,,,A*7F
$GPRMC,205000.00,A,3852.8246,N,08828.7532,W,40.5,290.0,190726,,,A*77
$GPRMC,214500.00,A,3845.9276,N,08837.2606,W,35.7,222.0,190726,,,A*70
$GPRMC,224000.00,A,3839.5382,N,08845.8790,W,38.4,149.0,190726,,,A*7A
$GPRMC,233500.00,A,3833.1134,N,08854.1818,W,52.7,19.0,190726,,,A*45
$GPRMC,003000.00,A,3826.4030,N,08902.8530,W,38.7,122.0,200726,,,A*76
$GPRMC,012500.00,A,3819.9956,N,08911.3232,W,39.7,328.0,200726,,,A*7E
$GPRMC,022000.00,A,3813.0056,N,08919.9272,W,41.0,284.0,200726,,,A*7B
$GPRMC,031500.00,A,3806.4542,N,08928.2732,W,45.2,115.0,200726,,,A*79
$GPRMC,020000.00,A,3906.1104,N,08812.0534,W,44.0,201.0,150826,,,A*7C
$GPRMC,025933.00,A,3854.3786,N,08806.7182,W,42.9,71.0,150826,,,A*49
$GPRMC,035906.00,A,3842.5388,N,08800.9174,W,46.7,282.0,150826,,,A*70
$GPRMC,045840.00,A,3830.5382,N,08755.2714,W,40.9,124.0,150826,,,A*78
$GPRMC,055813.00,A,3818.2334,N,08749.7352,W,35.9,156.0,150826,,,A*76
$GPRMC,065746.00,A,3806.6822,N,08743.9308,W,42.3,332.0,150826,,,A*7C
$GPRMC,075720.00,A,3755.0518,N,08738.3580,W,44.5,18.0,150826,,,A*4D
$GPRMC,085653.00,A,3743.2738,N,08733.2586,W,36.7,16.0,150826,,,A*47
$GPRMC,095626.00,A,3731.4718,N,08727.6942,W,38.9,270.0,150826,,,A*72
$GPRMC,105600.00,A,3719.5654,N,08722.3476,W,52.3,213.0,150826,,,A*75
$GPRMC,080000.00,A,3905.8206,N,08811.6658,W,39.9,348.0,110926,,,A*7B
$GPRMC,084026.00,A,3859.2476,N,08815.3942,W,41.7,158.0,110926,,,A*7F
$GPRMC,092053.00,A,3852.5468,N,08819.4058,W,43.8,176.0,110926,,,A*71
$GPRMC,100120.00,A,3845.4716,N,08822.8348,W,52.3,120.0,110926,,,A*7D
$GPRMC,104146.00,A,3831.8162,N,08803.2976,W,44.8,148.0,110926,,,A*7F
$GPRMC,112213.00,A,3825.1304,N,08806.6456,W,47.2,219.0,110926,,,A*75
$GPRMC,120240.00,A,3817.8914,N,08810.0566,W,45.1,127.0,110926,,,A*7D
$GPRMC,124306.00,A,3818.3948,N,08836.6312,W,36.7,40.0,110926,,,A*42
$GPRMC,132333.00,A,3811.8548,N,08840.3662,W,38.4,40.0,110926,,,A*46
$GPRMC,140400.00,A,3804.9536,N,08843.6476,W,48.0,93.0,110926,,,A*44
