$GPRMC,020000.00,A,3905.8254,N,08812.3162,W,52.5,165.0,280726,,,A*76
$GPRMC,031300.00,A,3912.7518,N,08807.8456,W,44.8,47.0,280726,,,A*45
$GPRMC,042600.00,A,3918.4800,N,08802.9958,W,42.8,73.0,280726,,,A*4F
$GPRMC,053900.00,A,3925.2396,N,08759.0478,W,49.2,121.0,280726,,,A*7C
$GPRMC,065200.00,A,3931.4610,N,08754.7188,W,34.2,60.0,280726,,,A*44
$GPRMC,080500.00,A,3938.1720,N,08750.4984,W,35.8,276.0,280726,,,A*7B
$GPRMC,091800.00,A,3944.5002,N,08745.9198,W,50.2,287.0,280726,,,A*75
$GPRMC,103100.00,A,3950.6730,N,08741.4840,W,40.8,94.0,280726,,,A*48
$GPRMC,114400.00,A,3957.6024,N,08737.3416,W,38.5,150.0,280726,,,A*7C
$GPRMC,125700.00,A,4003.4056,N,08732.8758,W,48.2,17.0,280726,,,A*40
$GPRMC,182600.00,A,3906.3588,N,08811.9946,W,39.1,183.0,210826,,,A*77
$GPRMC,193626.00,A,3901.8378,N,08814.7624,W,40.6,249.0,210826,,,A*7A
$GPRMC,204653.00,A,3857.6078,N,08817.4612,W,44.2,185.0,210826,,,A*7C
$GPRMC,215720.00,A,3853.1144,N,08820.2920,W,33.6,231.0,210826,,,A*70
$GPRMC,230746.00,A,3848.6348,N,08823.4300,W,52.8,351.0,210826,,,A*77
$GPRMC,001813.00,A,3844.3052,N,08825.8378,W,41.4,199.0,220826,,,A*77
$GPRMC,012840.00,A,3839.9264,N,08829.1018,W,49.6,269.0,220826,,,A*72
$GPRMC,023906.00,A,3835.8422,N,08831.9338,W,34.2,173.0,220826,,,A*7C
$GPRMC,034933.00,A,3831.6866,N,08834.3332,W,43.8,14.0,220826,,,A*45
$GPRMC,050000.00,A,3827.4596,N,08837.2012,W,46.1,296.0,220826,,,A*7E
$GPRMC,190000.00,A,3905.6610,N,08811.9868,W,44.6,44.0,200926,,,A*4C
$GPRMC,200000.00,A,3914.7936,N,08821.6618,W,52.4,141.0,200926,,,A*78
$GPRMC,210000.00,A,3923.7144,N,08831.7022,W,46.9,96.0,200926,,,A*4C
$GPRMC,220000.00,A,3932.6676,N,08841.3418,W,48.7,106.0,200926,,,A*7E
$GPRMC,230000.00,A,3941.7066,N,08851.1704,W,45.7,201.0,200926,,,A*79
$GPRMC,000000.00,A,3950.1360,N,08901.2090,W,49.0,2.0,210926,,,A*7D
$GPRMC,010000.00,A,3958.9800,N,08911.3640,W,45.7,250.0,210926,,,A*74
