$GPRMC,160000.00,A,4152.8462,N,08757.1416,W,40.6,174.0,130726,,,A*7F
$GPRMC,170133.00,A,4145.1350,N,08808.6976,W,40.3,211.0,130726,,,A*7A
$GPRMC,180306.00,A,4137.5846,N,08821.0888,W,43.6,244.0,130726,,,A*77
$GPRMC,190440.00,A,4129.7702,N,08832.5500,W,41.7,91.0,130726,,,A*42
$GPRMC,200613.00,A,4121.9192,N,08844.7702,W,51.5,106.0,130726,,,A*7A
$GPRMC,210746.00,A,4114.4966,N,08856.7906,W,41.1,180.0,130726,,,A*70
$GPRMC,220920.00,A,4106.8118,N,08908.5242,W,42.5,245.0,130726,,,A*7D
$GPRMC,231053.00,A,4059.5056,N,08920.1876,W,35.9,269.0,130726,,,A*7C
$GPRMC,001226.00,A,4051.2856,N,08932.3898,W,48.3,335.0,140726,,,A*74
$GPRMC,011400.00,A,4043.7574,N,08944.5002,W,42.7,349.0,140726,,,A*75
$GPRMC,210000.00,A,4153.0346,N,08757.1356,W,51.2,350.0,180826,,,A*74
$GPRMC,220820.00,A,4200.3732,N,08747.2506,W,48.8,101.0,180826,,,A*79
$GPRMC,231640.00,A,4207.7142,N,08737.1838,W,36.0,71.0,180826,,,A*40
$GPRMC,002500.00,A,4214.5566,N,08727.6624,W,39.4,293.0,190826,,,A*76
$GPRMC,013320.00,A,4222.0626,N,08717.5284,W,50.6,253.0,190826,,,A*7A
$GPRMC,024140.00,A,4229.6478,N,08708.1162,W,43.5,153.0,190826,,,A*7D
$GPRMC,035000.00,A,4237.0278,N,08658.4850,W,43.8,157.0,190826,,,A*77
$GPRMC,045820.00,A,4244.1930,N,08648.4602,W,52.6,112.0,190826,,,A*7F
$GPRMC,060640.00,A,4251.6576,N,08638.5434,W,48.3,41.0,190826,,,A*45
$GPRMC,071500.00,A,4258.5834,N,08628.9830,W,52.9,202.0,190826,,,A*72
