$GPRMC,140000.00,A,4026.5314,N,08609.0936,W,45.1,320.0,250726,,,A*74
$GPRMC,145613.00,A,4020.4138,N,08608.0478,W,52.8,227.0,250726,,,A*71
$GPRMC,155226.00,A,4014.6874,N,08606.9336,W,37.5,21.0,250726,,,A*46
$GPRMC,164840.00,A,4008.8260,N,08605.5632,W,38.5,204.0,250726,,,A*76
$GPRMC,174453.00,A,4002.6376,N,08604.8510,W,50.0,80.0,250726,,,A*41
$GPRMC,184106.00,A,3956.6838,N,08603.3390,W,41.0,8.0,250726,,,A*77
$GPRMC,193720.00,A,3950.9490,N,08602.6454,W,35.4,57.0,250726,,,A*42
$GPRMC,203333.00,A,3944.6232,N,08601.4394,W,49.6,168.0,250726,,,A*74
$GPRMC,212946.00,A,3938.9910,N,08600.3132,W,38.8,315.0,250726,,,A*7B
$GPRMC,222600.00,A,3932.7414,N,08559.6970,W,51.6,264.0,250726,,,A*7A
$GPRMC,060000.00,A,4026.1390,N,08608.7498,W,38.0,346.0,210826,,,A*70
$GPRMC,065020.00,A,4029.4792,N,08623.0448,W,34.2,71.0,210826,,,A*41
$GPRMC,074040.00,A,4033.0606,N,08637.0488,W,38.6,204.0,210826,,,A*75
$GPRMC,083100.00,A,4036.6588,N,08650.8356,W,51.7,295.0,210826,,,A*75
$GPRMC,092120.00,A,4039.5508,N,08704.1022,W,38.2,158.0,210826,,,A*72
$GPRMC,101140.00,A,4042.8886,N,08718.1368,W,37.4,200.0,210826,,,A*72
$GPRMC,110200.00,A,4046.5150,N,08732.4444,W,46.8,125.0,210826,,,A*74
$GPRMC,115220.00,A,4049.6830,N,08746.2642,W,35.4,292.0,210826,,,A*76
$GPRMC,124240.00,A,4053.1342,N,08759.8296,W,43.3,223.0,210826,,,A*75
$GPRMC,133300.00,A,4055.9212,N,08813.5696,W,50.8,87.0,210826,,,A*41
$GPRMC,110000.00,A,4026.0526,N,08608.7054,W,37.5,286.0,170926,,,A*7B
$GPRMC,114640.00,A,4031.7868,N,08606.8184,W,42.9,113.0,170926,,,A*77
$GPRMC,123320.00,A,4036.9402,N,08605.3406,W,52.2,293.0,170926,,,A*7F
$GPRMC,132000.00,A,4042.3972,N,08603.0894,W,38.1,134.0,170926,,,A*7E
$GPRMC,140640.00,A,4048.3462,N,08601.3230,W,44.1,61.0,170926,,,A*40
$GPRMC,145320.00,A,4053.7456,N,08558.8558,W,33.6,252.0,170926,,,A*77
$GPRMC,154000.00,A,4059.1276,N,08557.1662,W,37.7,121.0,170926,,,A*70
