$GPRMC,150000.00,A,4026.3418,N,08609.0606,W,38.6,68.0,160726,,,A*46
$GPRMC,154753.00,A,4026.3970,N,08619.9524,W,51.9,339.0,160726,,,A*7C
$GPRMC,163546.00,A,4026.6244,N,08631.2408,W,46.9,301.0,160726,,,A*74
$GPRMC,172340.00,A,4027.2514,N,08642.9978,W,34.4,231.0,160726,,,A*7C
$GPRMC,181133.00,A,4027.1434,N,08653.6808,W,46.2,23.0,160726,,,A*4D
$GPRMC,185926.00,A,4027.1968,N,08705.3790,W,43.3,218.0,160726,,,A*76
$GPRMC,194720.00,A,4027.3258,N,08716.6416,W,35.3,189.0,160726,,,A*74
$GPRMC,203513.00,A,4027.9138,N,08727.8604,W,44.4,307.0,160726,,,A*7C
$GPRMC,212306.00,A,4028.2294,N,08738.7984,W,42.7,110.0,160726,,,A*78
$GPRMC,221100.00,A,4027.7422,N,08750.1072,W,42.7,9.0,160726,,,A*7C
$GPRMC,180000.00,A,4026.3298,N,08609.3144,W,50.4,70.0,120826,,,A*49
$GPRMC,185253.00,A,4027.0546,N,08616.1790,W,43.1,228.0,120826,,,A*75
$GPRMC,194546.00,A,4027.5232,N,08624.0156,W,35.4,63.0,120826,,,A*42
$GPRMC,203840.00,A,4027.8622,N,08631.4892,W,34.8,144.0,120826,,,A*74
$GPRMC,213133.00,A,4028.7274,N,08639.3456,W,44.3,224.0,120826,,,A*7D
$GPRMC,222426.00,A,4029.2806,N,08646.9572,W,52.2,168.0,120826,,,A*7D
$GPRMC,231720.00,A,4030.0384,N,08654.2598,W,45.6,56.0,120826,,,A*43
$GPRMC,001013.00,A,4030.5358,N,08702.0958,W,51.5,201.0,130826,,,A*76
$GPRMC,010306.00,A,4030.7398,N,08709.1698,W,37.0,182.0,130826,,,A*7B
$GPRMC,015600.00,A,4031.6332,N,08716.7586,W,36.7,304.0,130826,,,A*73
$GPRMC,080000.00,A,4026.7054,N,08608.8962,W,42.5,242.0,080926,,,A*73
$GPRMC,084840.00,A,4034.2438,N,08617.2752,W,43.8,286.0,080926,,,A*7E
$GPRMC,093720.00,A,4042.2784,N,08625.3998,W,38.7,55.0,080926,,,A*43
$GPRMC,102600.00,A,4049.8264,N,08634.3338,W,45.2,227.0,080926,,,A*7B
$GPRMC,111440.00,A,4057.8532,N,08642.7410,W,34.4,198.0,080926,,,A*7B
$GPRMC,120320.00,A,4105.5872,N,08650.6712,W,51.2,271.0,080926,,,A*78
$GPRMC,125200.00,A,4113.1346,N,08659.1318,W,52.5,163.0,080926,,,A*75
$GPRMC,134040.00,A,4120.8188,N,08707.5336,W,49.1,287.0,080926,,,A*7F
$GPRMC,142920.00,A,4128.4892,N,08715.7368,W,36.5,273.0,080926,,,A*7A
$GPRMC,151800.00,A,4136.8292,N,08724.2844,W,40.8,300.0,080926,,,A*79
