$GPRMC,060000.00,A,4152.8390,N,08757.0462,W,51.5,82.0,220726,,,A*4F
$GPRMC,072100.00,A,4142.4470,N,08803.5820,W,33.6,237.0,220726,,,A*73
$GPRMC,084200.00,A,4132.4588,N,08810.2642,W,44.8,43.0,220726,,,A*48
$GPRMC,100300.00,A,4122.4604,N,08816.4640,W,50.9,348.0,220726,,,A*7C
$GPRMC,112400.00,A,4112.9162,N,08823.5506,W,44.0,9.0,220726,,,A*7D
$GPRMC,124500.00,A,4102.4204,N,08830.3006,W,37.7,291.0,220726,,,A*77
$GPRMC,140600.00,A,4052.9014,N,08836.2952,W,52.1,332.0,220726,,,A*7E
$GPRMC,152700.00,A,4042.3768,N,08843.2678,W,43.0,158.0,220726,,,A*71
$GPRMC,164800.00,A,4032.5956,N,08850.1486,W,48.7,74.0,220726,,,A*48
$GPRMC,180900.00,A,4022.3782,N,08856.4708,W,35.1,309.0,220726,,,A*70
$GPRMC,050000.00,A,4153.1156,N,08756.9442,W,51.7,193.0,270826,,,A*7F
$GPRMC,054653.00,A,4149.7922,N,08749.2972,W,52.9,329.0,270826,,,A*78
$GPRMC,063346.00,A,4146.3674,N,08740.6362,W,40.3,63.0,270826,,,A*48
$GPRMC,072040.00,A,4143.6428,N,08732.8206,W,35.7,160.0,270826,,,A*7A
$GPRMC,080733.00,A,4140.2276,N,08725.1616,W,35.5,86.0,270826,,,A*4F
$GPRMC,085426.00,A,4137.5870,N,08716.5954,W,41.5,274.0,270826,,,A*77
$GPRMC,094120.00,A,4134.0518,N,08708.8134,W,38.8,357.0,270826,,,A*7E
$GPRMC,102813.00,A,4131.2702,N,08700.9690,W,36.3,278.0,270826,,,A*7E
$GPRMC,111506.00,A,4128.5342,N,08652.9398,W,47.8,118.0,270826,,,A*79
$GPRMC,120200.00,A,4125.4058,N,08644.5968,W,44.6,358.0,270826,,,A*7B
