$GPRMC,080000.00,A,4152.9260,N,08756.9358,W,47.7,44.0,310726,,,A*45
$GPRMC,091200.00,A,4142.3312,N,08751.5514,W,39.7,227.0,310726,,,A*73
$GPRMC,102400.00,A,4132.6280,N,08746.7598,W,39.4,252.0,310726,,,A*77
$GPRMC,113600.00,A,4122.2702,N,08741.6334,W,47.8,283.0,310726,,,A*70
$GPRMC,124800.00,A,4112.3216,N,08736.1782,W,37.1,223.0,310726,,,A*72
$GPRMC,140000.00,A,4102.0142,N,08731.2522,W,50.9,241.0,310726,,,A*79
$GPRMC,151200.00,A,4051.8406,N,08725.4412,W,42.9,120.0,310726,,,A*77
$GPRMC,162400.00,A,4041.4888,N,08720.3022,W,37.0,278.0,310726,,,A*76
$GPRMC,173600.00,A,4031.5498,N,08715.4260,W,34.4,121.0,310726,,,A*72
$GPRMC,184800.00,A,4020.8776,N,08710.1544,W,41.7,2.0,310726,,,A*7A
$GPRMC,010000.00,A,4153.0484,N,08757.2616,W,37.5,348.0,050926,,,A*7E
$GPRMC,020246.00,A,4143.8234,N,08758.0470,W,45.1,343.0,050926,,,A*7C
$GPRMC,030533.00,A,4135.1336,N,08759.5386,W,47.2,58.0,050926,,,A*41
$GPRMC,040820.00,A,4126.1444,N,08800.3192,W,36.1,148.0,050926,,,A*7E
$GPRMC,051106.00,A,4117.7750,N,08802.0856,W,39.4,243.0,050926,,,A*73
$GPRMC,061353.00,A,4108.8068,N,08802.8710,W,34.7,247.0,050926,,,A*70
$GPRMC,071640.00,A,4100.0264,N,08804.0062,W,42.5,248.0,050926,,,A*78
$GPRMC,081926.00,A,4051.5568,N,08805.4996,W,49.4,105.0,050926,,,A*74
$GPRMC,092213.00,A,4042.4512,N,08806.8202,W,51.7,227.0,050926,,,A*75
$GPRMC,102500.00,A,4033.6690,N,08807.7964,W,33.7,303.0,050926,,,A*73
