$GPRMC,150000.00,A,4026.4570,N,08608.7714,W,47.4,111.0,030826,,,A*74
$GPRMC,160200.00,A,4029.2452,N,08556.9994,W,45.5,157.0,030826,,,A*7C
$GPRMC,170400.00,A,4031.8282,N,08544.3550,W,39.5,62.0,030826,,,A*42
$GPRMC,180600.00,A,4034.6362,N,08531.9482,W,46.8,53.0,030826,,,A*4A
$GPRMC,190800.00,A,4037.7022,N,08519.9542,W,44.7,163.0,030826,,,A*78
$GPRMC,201000.00,A,4040.3512,N,08507.3032,W,45.8,158.0,030826,,,A*78
$GPRMC,211200.00,A,4042.7608,N,08455.4598,W,49.0,37.0,030826,,,A*4D
$GPRMC,221400.00,A,4045.5358,N,08442.9672,W,40.4,183.0,030826,,,A*72
$GPRMC,231600.00,A,4048.5550,N,08430.4152,W,43.1,359.0,030826,,,A*7C
$GPRMC,001800.00,A,4050.7606,N,08418.8118,W,49.1,216.0,040826,,,A*77
$GPRMC,150000.00,A,4026.3850,N,08609.3408,W,44.5,279.0,300826,,,A*78
$GPRMC,160220.00,A,4029.9820,N,08600.3534,W,34.6,42.0,300826,,,A*40
$GPRMC,170440.00,A,4032.7594,N,08552.0776,W,39.8,144.0,300826,,,A*70
$GPRMC,180700.00,A,4036.1836,N,08543.6800,W,47.4,290.0,300826,,,A*78
$GPRMC,190920.00,A,4039.9204,N,08534.9512,W,40.2,73.0,300826,,,A*46
$GPRMC,201140.00,A,4043.4112,N,08526.7144,W,44.0,283.0,300826,,,A*76
$GPRMC,211400.00,A,4046.6350,N,08518.3906,W,35.0,157.0,300826,,,A*7E
$GPRMC,221620.00,A,4050.0130,N,08509.4692,W,36.8,108.0,300826,,,A*7C
$GPRMC,231840.00,A,4053.1120,N,08501.5288,W,44.7,311.0,300826,,,A*70
$GPRMC,002100.00,A,4056.8728,N,08452.8600,W,47.6,159.0,310826,,,A*7E
